{"type": "FeatureCollection", "features": [ {"type": "Feature", "properties": {"norad_id": 47051, "name": "COSMOS 2251 DEB", "group": "cosmos-2251-debris", "lat": -16.385479651215668, "lon": -4.462041302372883, "alt_km": 986.3490683710979, "timestamp": "2025-12-20T14:38:02.367594+00:00", "meta": {"OBJECT_NAME": "COSMOS 2251 DEB", "OBJECT_ID": "1993-036BXF", "EPOCH": "2025-12-13T06:55:53.868288", "MEAN_MOTION": 13.67117141, "ECCENTRICITY": 0.03401033, "INCLINATION": 74.1001, "RA_OF_ASC_NODE": 182.6908, "ARG_OF_PERICENTER": 296.1774, "MEAN_ANOMALY": 246.9893, "EPHEMERIS_TYPE": 0, "CLASSIFICATION_TYPE": "U", "NORAD_CAT_ID": 47051, "ELEMENT_SET_NO": 999, "REV_AT_EPOCH": 59945, "BSTAR": 0.0019326179, "MEAN_MOTION_DOT": 2.391e-05, "MEAN_MOTION_DDOT": 0}, "tle": {"line1": "1 47051U 93036BXF 25347.28881792  .00002391  00000+0  19326-2 0  9991", "line2": "2 47051  74.1001 182.6908 0340103 296.1774 246.9893 13.67117141599458"}}, "geometry": {"type": "Point", "coordinates": [-4.462041302372883, -16.385479651215668]}}, {"type": "Feature", "properties": {"norad_id": 47052, "name": "COSMOS 2251 DEB", "group": "cosmos-2251-debris", "lat": 36.24395109770723, "lon": -21.992498495810484, "alt_km": 728.9756680536593, "timestamp": "2025-12-20T14:38:02.367604+00:00", "meta": {"OBJECT_NAME": "COSMOS 2251 DEB", "OBJECT_ID": "1993-036BXG", "EPOCH": "2025-12-13T17:42:34.547904", "MEAN_MOTION": 14.35482778, "ECCENTRICITY": 0.00580984, "INCLINATION": 74.0478, "RA_OF_ASC_NODE": 338.4955, "ARG_OF_PERICENTER": 52.4094, "MEAN_ANOMALY": 127.807, "EPHEMERIS_TYPE": 0, "CLASSIFICATION_TYPE": "U", "NORAD_CAT_ID": 47052, "ELEMENT_SET_NO": 999, "REV_AT_EPOCH": 61803, "BSTAR": 0.00037288685, "MEAN_MOTION_DOT": 1.067e-05, "MEAN_MOTION_DDOT": 0}, "tle": {"line1": "1 47052U 93036BXG 25347.73789986  .00001067  00000+0  37289-3 0  9992", "line2": "2 47052  74.0478 338.4955 0058098  52.4094 127.8070 14.35482778618033"}}, "geometry": {"type": "Point", "coordinates": [-21.992498495810484, 36.24395109770723]}}, {"type": "Feature", "properties": {"norad_id": 47053, "name": "COSMOS 2251 DEB", "group": "cosmos-2251-debris", "lat": -7.047472475433944, "lon": 63.34861838395898, "alt_km": 1229.099505992117, "timestamp": "2025-12-20T14:38:02.367614+00:00", "meta": {"OBJECT_NAME": "COSMOS 2251 DEB", "OBJECT_ID": "1993-036BXH", "EPOCH": "2025-12-16T00:20:00.787200", "MEAN_MOTION": 13.59681102, "ECCENTRICITY": 0.03769313, "INCLINATION": 74.0586, "RA_OF_ASC_NODE": 248.7599, "ARG_OF_PERICENTER": 61.5734, "MEAN_ANOMALY": 314.7883, "EPHEMERIS_TYPE": 0, "CLASSIFICATION_TYPE": "U", "NORAD_CAT_ID": 47053, "ELEMENT_SET_NO": 999, "REV_AT_EPOCH": 28933, "BSTAR": 0.0014494241, "MEAN_MOTION_DOT": 1.7e-05, "MEAN_MOTION_DDOT": 0}, "tle": {"line1": "1 47053U 93036BXH 25350.01389800  .00001700  00000+0  14494-2 0  9995", "line2": "2 47053  74.0586 248.7599 0376931  61.5734 314.7883 13.59681102289335"}}, "geometry": {"type": "Point", "coordinates": [63.34861838395898, -7.047472475433944]}}, {"type": "Feature", "properties": {"norad_id": 47059, "name": "COSMOS 2251 DEB", "group": "cosmos-2251-debris", "lat": 59.40622882032387, "lon": -111.88028304931288, "alt_km": 512.0706694930132, "timestamp": "2025-12-20T14:38:02.367625+00:00", "meta": {"OBJECT_NAME": "COSMOS 2251 DEB", "OBJECT_ID": "1993-036BXP", "EPOCH": "2025-12-16T01:10:48.054720", "MEAN_MOTION": 15.13144812, "ECCENTRICITY": 0.00128667, "INCLINATION": 73.98, "RA_OF_ASC_NODE": 228.534, "ARG_OF_PERICENTER": 42.2566, "MEAN_ANOMALY": 26.5019, "EPHEMERIS_TYPE": 0, "CLASSIFICATION_TYPE": "U", "NORAD_CAT_ID": 47059, "ELEMENT_SET_NO": 999, "REV_AT_EPOCH": 8355, "BSTAR": 0.0018804977, "MEAN_MOTION_DOT": 0.00033522, "MEAN_MOTION_DDOT": 0}, "tle": {"line1": "1 47059U 93036BXP 25350.04916730  .00033522  00000+0  18805-2 0  9999", "line2": "2 47059  73.9800 228.5340 0012866  42.2566  26.5019 15.13144812 83550"}}, "geometry": {"type": "Point", "coordinates": [-111.88028304931288, 59.40622882032387]}}, {"type": "Feature", "properties": {"norad_id": 47062, "name": "COSMOS 2251 DEB", "group": "cosmos-2251-debris", "lat": 57.6398749255643, "lon": 91.9646289100143, "alt_km": 1127.631213180095, "timestamp": "2025-12-20T14:38:02.367635+00:00", "meta": {"OBJECT_NAME": "COSMOS 2251 DEB", "OBJECT_ID": "1993-036BXS", "EPOCH": "2025-12-13T23:56:30.676992", "MEAN_MOTION": 13.71952164, "ECCENTRICITY": 0.03233862, "INCLINATION": 74.0831, "RA_OF_ASC_NODE": 76.1003, "ARG_OF_PERICENTER": 201.6929, "MEAN_ANOMALY": 337.1469, "EPHEMERIS_TYPE": 0, "CLASSIFICATION_TYPE": "U", "NORAD_CAT_ID": 47062, "ELEMENT_SET_NO": 999, "REV_AT_EPOCH": 55619, "BSTAR": 0.0017198262, "MEAN_MOTION_DOT": 2.244e-05, "MEAN_MOTION_DDOT": 0}, "tle": {"line1": "1 47062U 93036BXS 25347.99757728  .00002244  00000+0  17198-2 0  9994", "line2": "2 47062  74.0831  76.1003 0323386 201.6929 337.1469 13.71952164556193"}}, "geometry": {"type": "Point", "coordinates": [91.9646289100143, 57.6398749255643]}}, {"type": "Feature", "properties": {"norad_id": 47068, "name": "COSMOS 2251 DEB", "group": "cosmos-2251-debris", "lat": -35.93835240795581, "lon": 176.61962490206787, "alt_km": 712.4386086962459, "timestamp": "2025-12-20T14:38:02.367644+00:00", "meta": {"OBJECT_NAME": "COSMOS 2251 DEB", "OBJECT_ID": "1993-036BXY", "EPOCH": "2025-12-18T06:37:53.129568", "MEAN_MOTION": 14.53187379, "ECCENTRICITY": 0.00182878, "INCLINATION": 74.0232, "RA_OF_ASC_NODE": 193.012, "ARG_OF_PERICENTER": 279.6749, "MEAN_ANOMALY": 80.2347, "EPHEMERIS_TYPE": 0, "CLASSIFICATION_TYPE": "U", "NORAD_CAT_ID": 47068, "ELEMENT_SET_NO": 999, "REV_AT_EPOCH": 61837, "BSTAR": 0.00067889, "MEAN_MOTION_DOT": 2.791e-05, "MEAN_MOTION_DDOT": 0}, "tle": {"line1": "1 47068U 93036BXY 25352.27630937  .00002791  00000+0  67889-3 0  9999", "line2": "2 47068  74.0232 193.0120 0018287 279.6749  80.2347 14.53187379618378"}}, "geometry": {"type": "Point", "coordinates": [176.61962490206787, -35.93835240795581]}}, {"type": "Feature", "properties": {"norad_id": 47073, "name": "COSMOS 2251 DEB", "group": "cosmos-2251-debris", "lat": -13.704802123331188, "lon": 12.139644859037483, "alt_km": 780.0394910140576, "timestamp": "2025-12-20T14:38:02.367676+00:00", "meta": {"OBJECT_NAME": "COSMOS 2251 DEB", "OBJECT_ID": "1993-036BYD", "EPOCH": "2025-12-20T05:09:22.277088", "MEAN_MOTION": 14.04735867, "ECCENTRICITY": 0.01615332, "INCLINATION": 74.0811, "RA_OF_ASC_NODE": 188.8357, "ARG_OF_PERICENTER": 225.3344, "MEAN_ANOMALY": 133.4535, "EPHEMERIS_TYPE": 0, "CLASSIFICATION_TYPE": "U", "NORAD_CAT_ID": 47073, "ELEMENT_SET_NO": 999, "REV_AT_EPOCH": 60466, "BSTAR": 0.0004548846, "MEAN_MOTION_DOT": 7.94e-06, "MEAN_MOTION_DDOT": 0}, "tle": {"line1": "1 47073U 93036BYD 25354.21484117  .00000794  00000+0  45488-3 0  9990", "line2": "2 47073  74.0811 188.8357 0161533 225.3344 133.4535 14.04735867604667"}}, "geometry": {"type": "Point", "coordinates": [12.139644859037483, -13.704802123331188]}}, {"type": "Feature", "properties": {"norad_id": 47074, "name": "COSMOS 2251 DEB", "group": "cosmos-2251-debris", "lat": 35.60030326491109, "lon": 102.53772412767087, "alt_km": 873.5497799958002, "timestamp": "2025-12-20T14:38:02.367687+00:00", "meta": {"OBJECT_NAME": "COSMOS 2251 DEB", "OBJECT_ID": "1993-036BYE", "EPOCH": "2025-12-16T13:32:26.153376", "MEAN_MOTION": 14.35650419, "ECCENTRICITY": 0.01449048, "INCLINATION": 74.0928, "RA_OF_ASC_NODE": 301.7157, "ARG_OF_PERICENTER": 328.8455, "MEAN_ANOMALY": 153.2821, "EPHEMERIS_TYPE": 0, "CLASSIFICATION_TYPE": "U", "NORAD_CAT_ID": 47074, "ELEMENT_SET_NO": 999, "REV_AT_EPOCH": 2737, "BSTAR": 0.0011411657, "MEAN_MOTION_DOT": 3.683e-05, "MEAN_MOTION_DDOT": 0}, "tle": {"line1": "1 47074U 93036BYE 25350.56419159  .00003683  00000+0  11412-2 0  9998", "line2": "2 47074  74.0928 301.7157 0144904 328.8455 153.2821 14.35650419 27374"}}, "geometry": {"type": "Point", "coordinates": [102.53772412767087, 35.60030326491109]}}, {"type": "Feature", "properties": {"norad_id": 47116, "name": "COSMOS 2251 DEB", "group": "cosmos-2251-debris", "lat": -32.59233340511848, "lon": -145.80257488987073, "alt_km": 562.6218072423735, "timestamp": "2025-12-20T14:38:02.367698+00:00", "meta": {"OBJECT_NAME": "COSMOS 2251 DEB", "OBJECT_ID": "1993-036BYJ", "EPOCH": "2025-12-17T22:44:25.492992", "MEAN_MOTION": 14.98433598, "ECCENTRICITY": 0.00213127, "INCLINATION": 74.0233, "RA_OF_ASC_NODE": 230.1515, "ARG_OF_PERICENTER": 323.4041, "MEAN_ANOMALY": 47.2172, "EPHEMERIS_TYPE": 0, "CLASSIFICATION_TYPE": "U", "NORAD_CAT_ID": 47116, "ELEMENT_SET_NO": 999, "REV_AT_EPOCH": 59589, "BSTAR": 0.0014083931, "MEAN_MOTION_DOT": 0.000169, "MEAN_MOTION_DDOT": 0}, "tle": {"line1": "1 47116U 93036BYJ 25351.94751728  .00016900  00000+0  14084-2 0  9993", "line2": "2 47116  74.0233 230.1515 0021312 323.4041  47.2172 14.98433598595896"}}, "geometry": {"type": "Point", "coordinates": [-145.80257488987073, -32.59233340511848]}}, {"type": "Feature", "properties": {"norad_id": 53093, "name": "COSMOS 2251 DEB", "group": "cosmos-2251-debris", "lat": -8.201869708045006, "lon": -75.4962958530845, "alt_km": 742.0397392623881, "timestamp": "2025-12-20T14:38:02.367708+00:00", "meta": {"OBJECT_NAME": "COSMOS 2251 DEB", "OBJECT_ID": "1993-036BYP", "EPOCH": "2025-12-19T22:01:19.540128", "MEAN_MOTION": 14.41916058, "ECCENTRICITY": 0.0019643, "INCLINATION": 74.037, "RA_OF_ASC_NODE": 288.1505, "ARG_OF_PERICENTER": 4.0823, "MEAN_ANOMALY": 356.049, "EPHEMERIS_TYPE": 0, "CLASSIFICATION_TYPE": "U", "NORAD_CAT_ID": 53093, "ELEMENT_SET_NO": 999, "REV_AT_EPOCH": 17829, "BSTAR": 0.00055433, "MEAN_MOTION_DOT": 1.793e-05, "MEAN_MOTION_DDOT": 0}, "tle": {"line1": "1 53093U 93036BYP 25353.91758727  .00001793  00000+0  55433-3 0  9997", "line2": "2 53093  74.0370 288.1505 0019643   4.0823 356.0490 14.41916058178295"}}, "geometry": {"type": "Point", "coordinates": [-75.4962958530845, -8.201869708045006]}}]}